HST                     
1 20580U 90037B   25027.00520198  .00009462  00000+0  38603-3 0  9998
2 20580  28.4683 280.2067 0002535 335.2854  24.7618 15.22681064711123
POLAR                   
1 23802U 96013A   25027.78637612  .00000341  00000+0  00000+0 0  9996
2 23802  79.3122 232.4633 6013629 226.1266  65.0696  1.29846624138293
SWAS                    
1 25560U 98071A   25028.15808755  .00007380  00000+0  53577-3 0  9996
2 25560  69.8977  84.9861 0009650 300.5244  59.4965 15.04241617421433
CXO                     
1 25867U 99040B   25026.63825163  .00000810  00000+0  00000+0 0  9996
2 25867  46.2701 137.2371 8623610 306.5001   0.4102  0.37801369 15410
XMM-NEWTON              
1 25989U 99066A   25029.76979391  .00000221  00000+0  00000+0 0  9995
2 25989  66.8686 289.7141 4947157  73.5180   0.1643  0.50134603 34843
TERRA                   
1 25994U 99068A   25028.49130792  .00001097  00000+0  23572-3 0  9991
2 25994  98.0193  91.0912 0002920  44.0245  72.6520 14.60428221336043
CLUSTER II-FM7 (SAMBA)  
1 26410U 00041A   25028.66785842  .00001705  00000+0  00000+0 0  9992
2 26410 142.1610   5.1936 8046859 220.4468 359.2371  0.44796329 18058
CLUSTER II-FM5 (RUMBA)  
1 26463U 00045A   25027.96814671  .00024969  00000+0  00000+0 0  9996
2 26463 153.7180  49.7247 8949202 266.8171 359.8501  0.42902652 30358
CLUSTER II-FM8 (TANGO)  
1 26464U 00045B   25029.09122893  .00001706  00000+0  00000+0 0  9995
2 26464 142.4325   5.5580 8052968 220.6662 359.2123  0.44420971 65726
ODIN                    
1 26702U 01007A   25028.00421416  .00023480  00000+0  73187-3 0  9995
2 26702  97.4615  49.6692 0006001 185.8557 174.2616 15.33234420311833
TIMED                   
1 26998U 01055B   25027.83306361  .00002951  00000+0  28609-3 0  9995
2 26998  74.0700 171.0606 0000821 209.8536 150.2601 14.93181912255331
INTEGRAL                
1 27540U 02048A   25024.23414628 -.00000237  00000+0  00000+0 0  9996
2 27540  90.7662  10.6720 8616132 275.5480  68.3533  0.37568682 24722
CORIOLIS                
1 27640U 03001A   25027.92554733  .00000340  00000+0  18142-3 0  9992
2 27640  98.7146  37.5857 0013291 225.2256 134.7840 14.19701407142526
SORCE                   
1 27651U 03004A   25028.00038779  .00006530  00000+0  54216-3 0  9993
2 27651  39.9905 254.3160 0019473  21.4854 338.6752 14.98786464195968
MOST                    
1 27843U 03031D   25027.87575940  .00000264  00000+0  14139-3 0  9994
2 27843  98.7075  37.6485 0008811 271.6662  88.3506 14.21140325118938
SCISAT 1                
1 27858U 03036A   25028.20413940  .00001814  00000+0  24279-3 0  9992
2 27858  73.9300  93.8921 0008992 274.5468  85.4680 14.80277224156707
SWIFT                   
1 28485U 04047A   25028.25596183  .00029459  00000+0  94428-3 0  9996
2 28485  20.5568 357.0580 0006380 327.3684  32.6360 15.30478374108712
CALIPSO                 
1 29108U 06016B   25027.95023475  .00003011  00000+0  54011-3 0  9992
2 29108  98.4396  21.9564 0001763  83.1671 276.9733 14.67526254998893
HINODE (SOLAR-B)        
1 29479U 06041A   25027.88753278  .00001636  00000+0  29655-3 0  9991
2 29479  98.0804  46.1259 0019070  90.2004 270.1386 14.67485675980727
SHIJIAN-6 02A (SJ-6 02A)
1 29505U 06046A   25028.26030130  .00009466  00000+0  60618-3 0  9997
2 29505  97.6998  61.4113 0005221  80.1104 280.0713 15.08763676996038
SHIJIAN-6 02B (SJ-6 02B)
1 29506U 06046B   25028.46314546  .00002853  00000+0  24026-3 0  9992
2 29506  97.7191  57.2573 0001477 259.7035 100.4022 14.99007974995065
FGRST (GLAST)           
1 33053U 08029A   25027.55397414  .00006283  00000+0  27005-3 0  9992
2 33053  25.5826 104.9872 0010138 135.3639 224.7715 15.19812510918939
SDO                     
1 36395U 10005A   25026.20396688 -.00000084  00000+0  00000+0 0  9990
2 36395  33.5860  94.1202 0001777 206.6857 156.0082  1.00268723 54984
CRYOSAT 2               
1 36508U 10013A   25028.24222374  .00000499  00000+0  12313-3 0  9994
2 36508  92.0190 155.4141 0001261 128.4013 231.7307 14.51917138784850
X-SAT                   
1 37389U 11015C   25028.40781516  .00000392  00000+0  18491-3 0  9996
2 37389  98.3037  26.1237 0014670  30.0403 330.1616 14.24942650716305
GCOM-W1 (SHIZUKU)       
1 38337U 12025A   25027.69626108  .00001596  00000+0  36409-3 0  9993
2 38337  98.2272 330.5852 0001102  86.6838 341.0893 14.57139688675418
NUSTAR                  
1 38358U 12031A   25028.25002315  .00005508  00000+0  35502-3 0  9994
2 38358   6.0253 201.5601 0009302 200.4607 276.3507 15.01340865688110
NEOSSAT                 
1 39089U 13009D   25027.51269022  .00000513  00000+0  19307-3 0  9996
2 39089  98.4022 215.0497 0010343 318.3493  41.6904 14.35484150624186
BRITE-AUSTRIA           
1 39091U 13009F   25027.47949638  .00000602  00000+0  22096-3 0  9990
2 39091  98.3832 214.9520 0009485 314.8878  45.1538 14.36166402624455
IRIS                    
1 39197U 13033A   25027.46448249  .00003417  00000+0  41630-3 0  9997
2 39197  97.9543 223.1402 0025402 168.5280 191.6518 14.83839365625324
HISAKI (SPRINT-A)       
1 39253U 13049A   25027.00089738  .00000164  00000+0  13052-3 0  9994
2 39253  29.7201 273.3447 0137109 233.3233 125.4669 13.55465634562698
CASSIOPE                
1 39265U 13055A   25027.90319035  .00036890  00000+0  65256-3 0  9997
2 39265  80.9488 302.4073 0427140 280.3318  75.0018 14.88180421591571
STSAT-3                 
1 39422U 13066G   25028.36173928  .00006280  00000+0  53205-3 0  9995
2 39422  97.5489   5.5031 0018785 329.8751  30.1390 14.98190129608499
SWARM B                 
1 39451U 13067A   25028.36519382  .00007592  00000+0  31493-3 0  9998
2 39451  87.7516 135.1229 0002451  97.4346 262.7179 15.23714739620853
SWARM A                 
1 39452U 13067B   25027.86314124  .00012100  00000+0  31535-3 0  9998
2 39452  87.3367 241.8071 0002503  80.8964 279.2573 15.38723072628231
SWARM C                 
1 39453U 13067C   25027.86307642  .00011986  00000+0  31236-3 0  9995
2 39453  87.3367 240.3966 0002466  80.4977 279.6556 15.38723332628196
BRITE-CA1 (TORONTO)     
1 40020U 14033L   25027.89202123  .00002519  00000+0  39759-3 0  9992
2 40020  97.9033 163.7794 0082199  94.0732 266.9876 14.70991084567993
OCO 2                   
1 40059U 14035A   25027.88509025  .00001340  00000+0  30763-3 0  9993
2 40059  98.2274 331.5164 0001366  98.0785 262.0569 14.57071146562467
BRITE-PL2 (HEWELIUSZ)   
1 40119U 14049B   25027.83707780  .00004632  00000+0  46844-3 0  9992
2 40119  97.8851 132.9702 0014701 348.8993  11.1899 14.91415950566034
RESURS-P 2              
1 40360U 14087A   25028.26157644  .00462111  10915-3  51145-3 0  9998
2 40360  97.1135 127.1775 0001233 229.7781 130.3395 16.09623852566481
MMS 1                   
1 40482U 15011A   25027.66667824 -.00002054  00000+0  00000+0 0  9997
2 40482  59.6919 359.4205 8881800 155.9831  85.4338  0.28496482  1388
MMS 2                   
1 40483U 15011B   25027.66667824 -.00002057  00000+0  00000+0 0  9991
2 40483  59.6937 359.4184 8887308 155.9794  84.3258  0.28507271  1380
MMS 3                   
1 40484U 15011C   25027.66667824 -.00002057  00000+0  00000+0 0  9992
2 40484  59.6952 359.4172 8886253 155.9791  84.5433  0.28505600  1381
MMS 4                   
1 40485U 15011D   25027.91667824 -.00002066  00000+0  00000+0 0  9991
2 40485  59.7042 359.4069 8886259 155.9843 100.3232  0.28505850  1361
ASTROSAT                
1 40930U 15052A   25026.93964216  .00003079  00000+0  30610-3 0  9995
2 40930   5.9952 195.0749 0008244   6.3062 353.7170 14.80778705504662
DAMPE                   
1 41173U 15078A   25028.41877141  .00002856  00000+0  10478-3 0  9990
2 41173  97.4430  27.4490 0014196  68.9409 291.3347 15.28711287507371
PISAT                   
1 41784U 16059B   25027.88858421  .00002529  00000+0  45324-3 0  9993
2 41784  97.8223  45.6889 0030392  21.2554 338.9906 14.67327048445590
HXMT (HUIYAN)           
1 42758U 17034A   25028.38957579  .00014306  00000+0  63792-3 0  9994
2 42758  43.0130 102.5153 0010081 116.5915 243.5968 15.21211173421079
FLYING LAPTOP           
1 42831U 17042G   25028.14907333  .00004962  00000+0  42864-3 0  9996
2 42831  97.3902 202.5561 0012894  43.8959 316.3286 14.97591548410774
ZHANGHENG 1 (CSES)      
1 43194U 18015C   25028.42396316  .00021218  00000+0  95205-3 0  9994
2 43194  97.6290 180.7288 0007445 141.6589 218.5177 15.21194820387927
SALSAT                  
1 46495U 20068K   25027.87830504  .00012351  00000+0  58558-3 0  9990
2 46495  97.8451   0.2149 0010287 260.3296  99.6775 15.19404611238352
IXPE                    
1 49954U 21121A   25028.33336806  .00009830  00000+0  64536-3 0  9993
2 49954   0.2285 156.2077 0008780  36.1194 241.6787 15.03093643171777
